[{"OBJECT_NAME":"STARLINK-30989","OBJECT_ID":"2023-191C","EPOCH":"2026-03-09T22:00:01.999584","MEAN_MOTION":15.27580535,"ECCENTRICITY":0.00010754,"INCLINATION":43.0001,"RA_OF_ASC_NODE":102.4158,"ARG_OF_PERICENTER":261.9349,"MEAN_ANOMALY":73.7402,"EPHEMERIS_TYPE":0,"CLASSIFICATION_TYPE":"U","NORAD_CAT_ID":58510,"ELEMENT_SET_NO":999,"REV_AT_EPOCH":537,"BSTAR":0.00099358738,"MEAN_MOTION_DOT":0.0002718,"MEAN_MOTION_DDOT":0},{"OBJECT_NAME":"SL-3 R\/B","OBJECT_ID":"1982-079B","EPOCH":"2026-03-09T22:18:18.158976","MEAN_MOTION":15.24805533,"ECCENTRICITY":0.00250364,"INCLINATION":81.1481,"RA_OF_ASC_NODE":192.7939,"ARG_OF_PERICENTER":164.0597,"MEAN_ANOMALY":196.143,"EPHEMERIS_TYPE":0,"CLASSIFICATION_TYPE":"U","NORAD_CAT_ID":13403,"ELEMENT_SET_NO":999,"REV_AT_EPOCH":37773,"BSTAR":0.00032485557,"MEAN_MOTION_DOT":8.157e-5,"MEAN_MOTION_DDOT":0}]
